{
  "type": "FeatureCollection",
  "features": [
    {
      "type": "Feature",
      "properties": {
        "norad_id": 36049,
        "name": "COSMOS 2251 DEB",
        "group": "cosmos-2251-debris",
        "lat": -11.201365702661398,
        "lon": -79.5999177226329,
        "alt_km": 682.5378311275535,
        "timestamp": "2025-12-24T05:51:20.006492+00:00",
        "meta_object_name": "COSMOS 2251 DEB",
        "meta_object_id": "1993-036AXL",
        "meta_epoch": "2025-12-19T00:11:29.887584",
        "meta_mean_motion": 14.62222603,
        "meta_eccentricity": 0.00103942,
        "meta_inclination": 74.0312,
        "meta_ra_of_asc_node": 107.1751,
        "meta_arg_of_pericenter": 195.1693,
        "meta_mean_anomaly": 164.9164,
        "meta_ephemeris_type": 0,
        "meta_classification_type": "U",
        "meta_norad_cat_id": 36049,
        "meta_element_set_no": 999,
        "meta_rev_at_epoch": 85456,
        "meta_bstar": 0.00099664593,
        "meta_mean_motion_dot": 4.999e-05,
        "meta_mean_motion_ddot": 0,
        "tle_line1": "1 36049U 93036AXL 25353.00798481  .00004999  00000+0  99665-3 0  9996",
        "tle_line2": "2 36049  74.0312 107.1751 0010394 195.1693 164.9164 14.62222603854561"
      },
      "geometry": {
        "type": "Point",
        "coordinates": [
          -79.5999177226329,
          -11.201365702661398
        ]
      }
    },
    {
      "type": "Feature",
      "properties": {
        "norad_id": 36050,
        "name": "COSMOS 2251 DEB",
        "group": "cosmos-2251-debris",
        "lat": 66.196773055773,
        "lon": -148.92673129674844,
        "alt_km": 617.5416864215786,
        "timestamp": "2025-12-24T05:51:20.006502+00:00",
        "meta_object_name": "COSMOS 2251 DEB",
        "meta_object_id": "1993-036AXM",
        "meta_epoch": "2025-12-23T18:20:06.375552",
        "meta_mean_motion": 15.01191833,
        "meta_eccentricity": 0.00883826,
        "meta_inclination": 74.0302,
        "meta_ra_of_asc_node": 171.57,
        "meta_arg_of_pericenter": 248.7055,
        "meta_mean_anomaly": 110.468,
        "meta_ephemeris_type": 0,
        "meta_classification_type": "U",
        "meta_norad_cat_id": 36050,
        "meta_element_set_no": 999,
        "meta_rev_at_epoch": 67200,
        "meta_bstar": 0.00066513085,
        "meta_mean_motion_dot": 9.246e-05,
        "meta_mean_motion_ddot": 0,
        "tle_line1": "1 36050U 93036AXM 25357.76396268  .00009246  00000+0  66513-3 0  9998",
        "tle_line2": "2 36050  74.0302 171.5700 0088382 248.7055 110.4680 15.01191833672000"
      },
      "geometry": {
        "type": "Point",
        "coordinates": [
          -148.92673129674844,
          66.196773055773
        ]
      }
    },
    {
      "type": "Feature",
      "properties": {
        "norad_id": 36053,
        "name": "COSMOS 2251 DEB",
        "group": "cosmos-2251-debris",
        "lat": -34.52916701957406,
        "lon": 119.12691420807981,
        "alt_km": 716.5232611719812,
        "timestamp": "2025-12-24T05:51:20.006512+00:00",
        "meta_object_name": "COSMOS 2251 DEB",
        "meta_object_id": "1993-036AXQ",
        "meta_epoch": "2025-12-19T02:27:11.674944",
        "meta_mean_motion": 14.57252603,
        "meta_eccentricity": 0.00325446,
        "meta_inclination": 73.8697,
        "meta_ra_of_asc_node": 140.476,
        "meta_arg_of_pericenter": 87.3695,
        "meta_mean_anomaly": 273.1193,
        "meta_ephemeris_type": 0,
        "meta_classification_type": "U",
        "meta_norad_cat_id": 36053,
        "meta_element_set_no": 999,
        "meta_rev_at_epoch": 87537,
        "meta_bstar": 0.0010759038,
        "meta_mean_motion_dot": 4.872e-05,
        "meta_mean_motion_ddot": 0,
        "tle_line1": "1 36053U 93036AXQ 25353.10221846  .00004872  00000+0  10759-2 0  9994",
        "tle_line2": "2 36053  73.8697 140.4760 0032544  87.3695 273.1193 14.57252603875378"
      },
      "geometry": {
        "type": "Point",
        "coordinates": [
          119.12691420807981,
          -34.52916701957406
        ]
      }
    },
    {
      "type": "Feature",
      "properties": {
        "norad_id": 36058,
        "name": "COSMOS 2251 DEB",
        "group": "cosmos-2251-debris",
        "lat": 27.235931121343672,
        "lon": -176.9451024382834,
        "alt_km": 664.9835671826804,
        "timestamp": "2025-12-24T05:51:20.006522+00:00",
        "meta_object_name": "COSMOS 2251 DEB",
        "meta_object_id": "1993-036AXV",
        "meta_epoch": "2025-12-20T18:52:04.818432",
        "meta_mean_motion": 14.58726339,
        "meta_eccentricity": 0.00440828,
        "meta_inclination": 74.0229,
        "meta_ra_of_asc_node": 18.1226,
        "meta_arg_of_pericenter": 150.2394,
        "meta_mean_anomaly": 210.1292,
        "meta_ephemeris_type": 0,
        "meta_classification_type": "U",
        "meta_norad_cat_id": 36058,
        "meta_element_set_no": 999,
        "meta_rev_at_epoch": 66228,
        "meta_bstar": 0.0002931852,
        "meta_mean_motion_dot": 1.357e-05,
        "meta_mean_motion_ddot": 0,
        "tle_line1": "1 36058U 93036AXV 25354.78616688  .00001357  00000+0  29319-3 0  9994",
        "tle_line2": "2 36058  74.0229  18.1226 0044082 150.2394 210.1292 14.58726339662289"
      },
      "geometry": {
        "type": "Point",
        "coordinates": [
          -176.9451024382834,
          27.235931121343672
        ]
      }
    },
    {
      "type": "Feature",
      "properties": {
        "norad_id": 36060,
        "name": "COSMOS 2251 DEB",
        "group": "cosmos-2251-debris",
        "lat": 72.5795008004661,
        "lon": -80.87561095036074,
        "alt_km": 752.2268467560125,
        "timestamp": "2025-12-24T05:51:20.006533+00:00",
        "meta_object_name": "COSMOS 2251 DEB",
        "meta_object_id": "1993-036AXX",
        "meta_epoch": "2025-12-22T08:31:01.741728",
        "meta_mean_motion": 14.42019225,
        "meta_eccentricity": 0.00155648,
        "meta_inclination": 74.0279,
        "meta_ra_of_asc_node": 216.7352,
        "meta_arg_of_pericenter": 312.7382,
        "meta_mean_anomaly": 47.2463,
        "meta_ephemeris_type": 0,
        "meta_classification_type": "U",
        "meta_norad_cat_id": 36060,
        "meta_element_set_no": 999,
        "meta_rev_at_epoch": 85148,
        "meta_bstar": 0.00027365576,
        "meta_mean_motion_dot": 8.73e-06,
        "meta_mean_motion_ddot": 0,
        "tle_line1": "1 36060U 93036AXX 25356.35488127  .00000873  00000+0  27366-3 0  9999",
        "tle_line2": "2 36060  74.0279 216.7352 0015564 312.7382  47.2463 14.42019225851481"
      },
      "geometry": {
        "type": "Point",
        "coordinates": [
          -80.87561095036074,
          72.5795008004661
        ]
      }
    },
    {
      "type": "Feature",
      "properties": {
        "norad_id": 36061,
        "name": "COSMOS 2251 DEB",
        "group": "cosmos-2251-debris",
        "lat": -70.75040327246076,
        "lon": -76.41764115283824,
        "alt_km": 807.0796987870735,
        "timestamp": "2025-12-24T05:51:20.006569+00:00",
        "meta_object_name": "COSMOS 2251 DEB",
        "meta_object_id": "1993-036AXY",
        "meta_epoch": "2025-12-23T15:09:10.673856",
        "meta_mean_motion": 14.33725339,
        "meta_eccentricity": 0.00369201,
        "meta_inclination": 74.0242,
        "meta_ra_of_asc_node": 339.8232,
        "meta_arg_of_pericenter": 64.3412,
        "meta_mean_anomaly": 296.1546,
        "meta_ephemeris_type": 0,
        "meta_classification_type": "U",
        "meta_norad_cat_id": 36061,
        "meta_element_set_no": 999,
        "meta_rev_at_epoch": 65260,
        "meta_bstar": 0.00028137212,
        "meta_mean_motion_dot": 7.61e-06,
        "meta_mean_motion_ddot": 0,
        "tle_line1": "1 36061U 93036AXY 25357.63137354  .00000761  00000+0  28137-3 0  9998",
        "tle_line2": "2 36061  74.0242 339.8232 0036920  64.3412 296.1546 14.33725339652609"
      },
      "geometry": {
        "type": "Point",
        "coordinates": [
          -76.41764115283824,
          -70.75040327246076
        ]
      }
    },
    {
      "type": "Feature",
      "properties": {
        "norad_id": 36073,
        "name": "COSMOS 2251 DEB",
        "group": "cosmos-2251-debris",
        "lat": 63.98220600211337,
        "lon": -22.611659406448418,
        "alt_km": 760.6760362995892,
        "timestamp": "2025-12-24T05:51:20.006580+00:00",
        "meta_object_name": "COSMOS 2251 DEB",
        "meta_object_id": "1993-036AYL",
        "meta_epoch": "2025-12-18T03:58:06.481920",
        "meta_mean_motion": 14.34959898,
        "meta_eccentricity": 0.00240895,
        "meta_inclination": 74.0326,
        "meta_ra_of_asc_node": 312.6126,
        "meta_arg_of_pericenter": 19.0207,
        "meta_mean_anomaly": 341.1839,
        "meta_ephemeris_type": 0,
        "meta_classification_type": "U",
        "meta_norad_cat_id": 36073,
        "meta_element_set_no": 999,
        "meta_rev_at_epoch": 70285,
        "meta_bstar": 0.0001893667,
        "meta_mean_motion_dot": 5.14e-06,
        "meta_mean_motion_ddot": 0,
        "tle_line1": "1 36073U 93036AYL 25352.16535280  .00000514  00000+0  18937-3 0  9997",
        "tle_line2": "2 36073  74.0326 312.6126 0024089  19.0207 341.1839 14.34959898702857"
      },
      "geometry": {
        "type": "Point",
        "coordinates": [
          -22.611659406448418,
          63.98220600211337
        ]
      }
    }
  ]
}